NORAD_CAT_ID,OBJECT_NAME,OBJECT_TYPE,EPOCH,MEAN_MOTION,ECCENTRICITY,INCLINATION,RA_OF_ASC_NODE,ARG_OF_PERICENTER,MEAN_ANOMALY,BSTAR,MEAN_MOTION_DOT,MEAN_MOTION_DDOT,TLE_LINE0,TLE_LINE1,TLE_LINE2,SEMIMAJOR_AXIS,PERIOD,APOGEE,PERIGEE,DECAYED
52115.0,STARLINK-3685,PAYLOAD,2023-09-22 17:20:53,15.08830689,0.0001883,53.2167,154.7392,97.5337,262.5869,0.00022387,3.276e-05,0.0,0 STARLINK-3685,1 52115U 22029AD  23265.72283751  .00003276  00000-0  22387-3 0  9995,2 52115  53.2167 154.7392 0001883  97.5337 262.5869 15.08830689 85071,6917.909,95.438,541.076,538.471,0.0
52115.0,STARLINK-3685,PAYLOAD,2023-09-22 22:07:02,15.08833152,0.0001559,53.2164,153.8472,95.2193,264.8977,0.00025488,3.77e-05,0.0,0 STARLINK-3685,1 52115U 22029AD  23265.92155860  .00003770  00000-0  25488-3 0  9990,2 52115  53.2164 153.8472 0001559  95.2193 264.8977 15.08833152 85109,6917.901,95.438,540.845,538.688,0.0
52115.0,STARLINK-3685,PAYLOAD,2023-09-22 23:42:25,15.08836456,0.0001565,53.2164,153.5503,88.8142,271.303,0.00028303,4.219e-05,0.0,0 STARLINK-3685,1 52115U 22029AD  23265.98779740  .00004219  00000-0  28303-3 0  9993,2 52115  53.2164 153.5503 0001565  88.8142 271.3030 15.08836456 85114,6917.891,95.438,540.839,538.674,0.0
52115.0,STARLINK-3685,PAYLOAD,2023-09-24 02:43:58,15.08848365,0.0001399,53.2155,148.4937,90.6967,269.4186,2.0806e-05,4.3e-07,0.0,0 STARLINK-3685,1 52115U 22029AD  23267.11387167  .00000043  00000-0  20806-4 0  9990,2 52115  53.2155 148.4937 0001399  90.6967 269.4186 15.08848365 85289,6917.855,95.437,540.688,538.752,0.0
52115.0,STARLINK-3685,PAYLOAD,2023-09-24 21:48:36,15.08838503,0.0001364,53.2155,144.9251,92.0255,268.0893,1.1403e-05,-1.06e-06,0.0,0 STARLINK-3685,1 52115U 22029AD  23267.90875882 -.00000106  00000-0  11403-4 0  9997,2 52115  53.2155 144.9251 0001364  92.0255 268.0893 15.08838503 85404,6917.885,95.438,540.694,538.806,0.0
52115.0,STARLINK-3685,PAYLOAD,2023-09-24 23:23:59,15.08842594,0.0001364,53.2163,144.6271,91.9459,268.1689,6.661e-05,7.72e-06,0.0,0 STARLINK-3685,1 52115U 22029AD  23267.97499909  .00000772  00000-0  66610-4 0  9994,2 52115  53.2163 144.6271 0001364  91.9459 268.1689 15.08842594 85416,6917.872,95.437,540.681,538.794,0.0
52115.0,STARLINK-3685,PAYLOAD,2023-09-25 08:56:18,15.08850752,0.0001363,53.2164,142.8424,83.7197,276.3951,4.2541e-05,3.89e-06,0.0,0 STARLINK-3685,1 52115U 22029AD  23268.37243334  .00000389  00000-0  42541-4 0  9999,2 52115  53.2164 142.8424 0001363  83.7197 276.3951 15.08850752 85478,6917.848,95.437,540.655,538.77,0.0
52115.0,STARLINK-3685,PAYLOAD,2023-09-25 21:39:22,15.08860281,0.0001477,53.2157,140.4639,103.8808,256.2349,6.2403e-06,-1.89e-06,0.0,0 STARLINK-3685,1 52115U 22029AD  23268.90234648 -.00000189  00000-0  62403-5 0  9995,2 52115  53.2157 140.4639 0001477 103.8808 256.2349 15.08860281 85556,6917.818,95.436,540.705,538.662,0.0
52115.0,STARLINK-3685,PAYLOAD,2023-09-26 00:50:09,15.08861319,0.000126,53.2156,139.869,92.0038,268.1098,0.00044827,6.858e-05,0.0,0 STARLINK-3685,1 52115U 22029AD  23269.03482783  .00006858  00000-0  44827-3 0  9991,2 52115  53.2156 139.8690 0001260  92.0038 268.1098 15.08861319 85576,6917.815,95.436,540.552,538.809,0.0
52115.0,STARLINK-3685,PAYLOAD,2023-09-26 21:30:11,15.08832952,0.0001381,53.2145,136.0063,88.9731,271.1419,-1.5871e-05,-5.4e-06,0.0,0 STARLINK-3685,1 52115U 22029AD  23269.89596291 -.00000540  00000-0 -15871-4 0  9997,2 52115  53.2145 136.0063 0001381  88.9731 271.1419 15.08832952 85702,6917.902,95.438,540.722,538.812,0.0
52115.0,STARLINK-3685,PAYLOAD,2023-09-27 00:40:57,15.0883444,0.0001437,53.215,135.4096,95.3033,264.8123,0.00012305,1.671e-05,0.0,0 STARLINK-3685,1 52115U 22029AD  23270.02844263  .00001671  00000-0  12305-3 0  9991,2 52115  53.2150 135.4096 0001437  95.3033 264.8123 15.08834440 85723,6917.897,95.438,540.756,538.768,0.0
52115.0,STARLINK-3685,PAYLOAD,2023-09-27 08:37:53,15.08832188,0.0001535,53.215,133.9232,86.3962,273.7205,0.00022743,3.333e-05,0.0,0 STARLINK-3685,1 52115U 22029AD  23270.35964709  .00003333  00000-0  22743-3 0  9999,2 52115  53.2150 133.9232 0001535  86.3962 273.7205 15.08832188 85770,6917.904,95.438,540.831,538.707,0.0
52115.0,STARLINK-3685,PAYLOAD,2023-09-27 21:20:58,15.08836988,0.0001603,53.2156,131.5433,90.3455,269.7721,0.00048554,7.447e-05,0.0,0 STARLINK-3685,1 52115U 22029AD  23270.88957043  .00007447  00000-0  48554-3 0  9998,2 52115  53.2156 131.5433 0001603  90.3455 269.7721 15.08836988 85850,6917.89,95.438,540.864,538.646,0.0
52115.0,STARLINK-3685,PAYLOAD,2023-09-28 18:00:59,15.08851086,0.0001569,53.2154,127.6759,97.7393,262.3777,0.00049949,7.673e-05,0.0,0 STARLINK-3685,1 52115U 22029AD  23271.75068630  .00007673  00000-0  49949-3 0  9990,2 52115  53.2154 127.6759 0001569  97.7393 262.3777 15.08851086 85988,6917.847,95.437,540.797,538.626,0.0
52115.0,STARLINK-3685,PAYLOAD,2023-09-28 21:11:45,15.08853411,0.0001575,53.2156,127.0816,95.1237,264.9935,0.00049916,7.668e-05,0.0,0 STARLINK-3685,1 52115U 22029AD  23271.88316508  .00007668  00000-0  49916-3 0  9992,2 52115  53.2156 127.0816 0001575  95.1237 264.9935 15.08853411 86006,6917.839,95.437,540.794,538.615,0.0
52115.0,STARLINK-3685,PAYLOAD,2023-09-29 00:22:31,15.08854938,0.000158,53.2155,126.4873,92.9762,267.1411,0.00047713,7.317e-05,0.0,0 STARLINK-3685,1 52115U 22029AD  23272.01564397  .00007317  00000-0  47713-3 0  9993,2 52115  53.2155 126.4873 0001580  92.9762 267.1411 15.08854938 86026,6917.835,95.437,540.793,538.607,0.0
52115.0,STARLINK-3685,PAYLOAD,2023-09-29 17:51:45,15.08850375,0.0001646,53.2157,123.2147,102.1049,258.0127,0.00016108,2.277e-05,0.0,0 STARLINK-3685,1 52115U 22029AD  23272.74428024  .00002277  00000-0  16108-3 0  9993,2 52115  53.2157 123.2147 0001646 102.1049 258.0127 15.08850375 86138,6917.849,95.437,540.852,538.575,0.0
52115.0,STARLINK-3685,PAYLOAD,2023-09-29 19:27:08,15.08849426,0.0001545,53.215,122.9173,102.6374,257.4791,0.00014711,2.055e-05,0.0,0 STARLINK-3685,1 52115U 22029AD  23272.81052027  .00002055  00000-0  14711-3 0  9999,2 52115  53.2150 122.9173 0001545 102.6374 257.4791 15.08849426 86146,6917.852,95.437,540.785,538.648,0.0
52115.0,STARLINK-3685,PAYLOAD,2023-09-30 06:34:50,15.08845057,0.0001521,53.2151,120.8367,79.0868,281.0295,2.9901e-05,1.88e-06,0.0,0 STARLINK-3685,1 52115U 22029AD  23273.27420113  .00000188  00000-0  29901-4 0  9998,2 52115  53.2151 120.8367 0001521  79.0868 281.0295 15.08845057 86214,6917.865,95.437,540.782,538.678,0.0
52115.0,STARLINK-3685,PAYLOAD,2023-10-01 06:25:38,15.08843905,0.0001451,53.2152,116.3802,87.6783,272.4375,-1.711e-05,-5.6e-06,0.0,0 STARLINK-3685,1 52115U 22029AD  23274.26780104 -.00000560  00000-0 -17110-4 0  9992,2 52115  53.2152 116.3802 0001451  87.6783 272.4375 15.08843905 86361,6917.868,95.437,540.737,538.73,0.0
52115.0,STARLINK-3685,PAYLOAD,2023-10-01 19:08:42,15.08849222,0.0001345,53.215,114.0014,91.5732,268.5414,0.00022793,3.342e-05,0.0,0 STARLINK-3685,1 52115U 22029AD  23274.79771920  .00003342  00000-0  22793-3 0  9997,2 52115  53.2150 114.0014 0001345  91.5732 268.5414 15.08849222 86446,6917.852,95.437,540.648,538.787,0.0
52115.0,STARLINK-3685,PAYLOAD,2023-10-01 20:44:05,15.08852382,0.000132,53.2149,113.7036,92.3219,267.7925,0.00025817,3.825e-05,0.0,0 STARLINK-3685,1 52115U 22029AD  23274.86395787  .00003825  00000-0  25817-3 0  9994,2 52115  53.2149 113.7036 0001320  92.3219 267.7925 15.08852382 86456,6917.843,95.437,540.621,538.794,0.0
52115.0,STARLINK-3685,PAYLOAD,2023-10-02 06:16:25,15.08843622,0.0001352,53.2154,111.9195,95.2088,264.9058,0.00014549,2.029e-05,0.0,0 STARLINK-3685,1 52115U 22029AD  23275.26140093  .00002029  00000-0  14549-3 0  9992,2 52115  53.2154 111.9195 0001352  95.2088 264.9058 15.08843622 86519,6917.869,95.437,540.67,538.799,0.0
52115.0,STARLINK-3685,PAYLOAD,2023-10-02 20:34:53,15.0883721,0.0001293,53.2139,109.2413,83.7601,276.3538,4.8907e-05,4.9e-06,0.0,0 STARLINK-3685,1 52115U 22029AD  23275.85756609  .00000490  00000-0  48907-4 0  9999,2 52115  53.2139 109.2413 0001293  83.7601 276.3538 15.08837210 86608,6917.889,95.438,540.648,538.859,0.0
52115.0,STARLINK-3685,PAYLOAD,2023-10-03 06:07:12,15.08838426,0.0001319,53.2136,107.4567,90.2871,269.8272,4.4837e-05,4.26e-06,0.0,0 STARLINK-3685,1 52115U 22029AD  23276.25500459  .00000426  00000-0  44837-4 0  9991,2 52115  53.2136 107.4567 0001319  90.2871 269.8272 15.08838426 86664,6917.885,95.438,540.663,538.838,0.0
52115.0,STARLINK-3685,PAYLOAD,2023-10-03 22:01:03,15.08847292,0.0001367,53.2137,104.4828,89.2853,270.8296,0.00036594,5.542e-05,0.0,0 STARLINK-3685,1 52115U 22029AD  23276.91740386  .00005542  00000-0  36594-3 0  9993,2 52115  53.2137 104.4828 0001367  89.2853 270.8296 15.08847292 86763,6917.858,95.437,540.669,538.777,0.0
52115.0,STARLINK-3685,PAYLOAD,2023-10-04 12:19:32,15.08840635,0.0001465,53.2136,101.8068,88.0226,272.0933,0.00021288,3.102e-05,0.0,0 STARLINK-3685,1 52115U 22029AD  23277.51356740  .00003102  00000-0  21288-3 0  9991,2 52115  53.2136 101.8068 0001465  88.0226 272.0933 15.08840635 86855,6917.878,95.438,540.757,538.73,0.0
52115.0,STARLINK-3685,PAYLOAD,2023-10-04 18:41:04,15.08843768,0.0001398,53.2141,100.6164,88.5222,271.593,0.00020534,2.982e-05,0.0,0 STARLINK-3685,1 52115U 22029AD  23277.77852619  .00002982  00000-0  20534-3 0  9993,2 52115  53.2141 100.6164 0001398  88.5222 271.5930 15.08843768 86896,6917.869,95.437,540.701,538.767,0.0
52115.0,STARLINK-3685,PAYLOAD,2023-10-05 05:48:46,15.08844008,0.0001321,53.2142,98.5355,87.3012,272.8131,0.00019112,2.755e-05,0.0,0 STARLINK-3685,1 52115U 22029AD  23278.24220623  .00002755  00000-0  19112-3 0  9998,2 52115  53.2142  98.5355 0001321  87.3012 272.8131 15.08844008 86967,6917.868,95.437,540.647,538.819,0.0
52115.0,STARLINK-3685,PAYLOAD,2023-10-05 18:31:51,15.088669,0.0001228,53.2158,96.156,88.5261,271.5872,0.00062232,9.637e-05,0.0,0 STARLINK-3685,1 52115U 22029AD  23278.77211939  .00009637  00000-0  62232-3 0  9993,2 52115  53.2158  96.1560 0001228  88.5261 271.5872 15.08866900 87044,6917.798,95.436,540.513,538.814,0.0
